STARLINK-34720          
1 66449U 25259AD  26152.42136443  .00016293  00000+0  59981-3 0  9990
2 66449  43.0050 161.7566 0003211 279.5626  80.4863 15.27604654 32182
STARLINK-35334          
1 66450U 25259AE  26152.41751472  .00015527  00000+0  57223-3 0  9992
2 66450  43.0052 161.7325 0002674 294.0620  65.9952 15.27598279 32291
VIASAT-3 F2             
1 66454U 25261A   26154.90779601 -.00000221  00000+0  00000+0 0  9992
2 66454   0.0481 148.1050 0000211 306.3193  45.7444  1.00271106  2668
STARLINK-35643          
1 66456U 25262A   26152.52122402  .00012805  00000+0  47376-3 0  9993
2 66456  43.0012 183.0595 0001543 253.7497 106.3185 15.27598949 31726
STARLINK-35466          
1 66457U 25262B   26154.47382569  .00023951  00000+0  87585-3 0  9992
2 66457  42.9955 171.9121 0001069 285.3121  74.7612 15.27624334 32025
STARLINK-35684          
1 66458U 25262C   26153.36484218  .00037043  00000+0  13477-2 0  9999
2 66458  42.9917 178.2224 0002164 268.8250  91.2353 15.27607122 31856
STARLINK-35449          
1 66459U 25262D   26152.37503731  .00017454  00000+0  64198-3 0  9993
2 66459  42.9965 183.6792 0000784 166.1668 193.9205 15.27595458 31707
STARLINK-35424          
1 66460U 25262E   26152.09421534  .00022450  00000+0  82241-3 0  9995
2 66460  43.0002 185.0131 0001721 283.1750  76.8910 15.27598004 31667
STARLINK-35132          
1 66461U 25262F   26152.15702910  .00020472  00000+0  75098-3 0  9997
2 66461  43.0004 184.6228 0001418 257.1548 102.9145 15.27597805 31671
STARLINK-35499          
1 66462U 25262G   26152.40960247  .00018203  00000+0  67037-3 0  9998
2 66462  42.9989 183.0782 0001266 244.4182 115.6539 15.27530496 31710
STARLINK-35463          
1 66463U 25262H   26154.46483027  .00016603  00000+0  61086-3 0  9993
2 66463  42.9973 171.8396 0001301 303.0535  57.0192 15.27613859 32028
STARLINK-35435          
1 66464U 25262J   26152.40058410  .00017470  00000+0  64254-3 0  9993
2 66464  43.0027 183.0048 0001781 270.9192  89.1455 15.27596302 31719
STARLINK-35448          
1 66465U 25262K   26152.44812811  .00024969  00000+0  91348-3 0  9996
2 66465  42.9964 183.3646 0001614 258.0922 101.9749 15.27591719 31714
STARLINK-35388          
1 66466U 25262L   26152.41471943  .00007174  00000+0  26994-3 0  9995
2 66466  43.0009 183.1148 0001987 283.5763  76.4867 15.27585541 31714
STARLINK-35682          
1 66467U 25262M   26152.46483148  .00017375  00000+0  63916-3 0  9990
2 66467  43.0008 183.4953 0002159 261.9380  98.1227 15.27593985 31710
STARLINK-35331          
1 66468U 25262N   26152.45712679  .00028898  00000+0  10553-2 0  9994
2 66468  42.9998 183.4341 0001210 276.5916  83.4798 15.27588657 31712
STARLINK-35451          
1 66469U 25262P   26153.90961142  .00017308  00000+0  63641-3 0  9998
2 66469  42.9967 174.5484 0000973 163.0548 197.0337 15.27609895 31948
STARLINK-35655          
1 66470U 25262Q   26152.43913692  .00021735  00000+0  79704-3 0  9990
2 66470  42.9960 183.2965 0001196 294.5293  65.5434 15.27578837 31712
STARLINK-35569          
1 66471U 25262R   26152.09678378  .00022135  00000+0  81103-3 0  9993
2 66471  43.0029 185.0304 0001887 290.9691  69.0959 15.27597743 31669
STARLINK-35567          
1 66472U 25262S   26152.41086320  .00021816  00000+0  79957-3 0  9999
2 66472  43.0030 183.0872 0001950 284.0020  76.0615 15.27596101 31711
STARLINK-35568          
1 66473U 25262T   26152.46097902  .00006883  00000+0  25930-3 0  9992
2 66473  42.9991 183.4595 0001143 250.1517 109.9211 15.27594917 31712
STARLINK-35620          
1 66474U 25262U   26152.15831310  .00020669  00000+0  75816-3 0  9994
2 66474  43.0022 184.6254 0001268 234.6514 125.4219 15.27595262 31677
STARLINK-35538          
1 66475U 25262V   26152.45328514  .00020077  00000+0  73659-3 0  9991
2 66475  42.9996 183.3992 0001706 267.2268  92.8388 15.27602894 31715
STARLINK-35372          
1 66476U 25262W   26152.43658851  .00017966  00000+0  66081-3 0  9994
2 66476  42.9995 183.2727 0001374 269.4116  90.6578 15.27579176 31608
STARLINK-35354          
1 66477U 25262X   26152.48267228  .00017370  00000+0  63871-3 0  9997
2 66477  43.0036 182.7635 0003243 299.3127  60.7401 15.27604932 31725
STARLINK-35283          
1 66478U 25262Y   26153.36611363  .00018212  00000+0  66942-3 0  9997
2 66478  42.9950 178.2104 0000828  24.4916 335.5975 15.27592578 31854
STARLINK-35581          
1 66479U 25262Z   26152.40186731  .00020017  00000+0  73456-3 0  9992
2 66479  43.0025 183.0151 0001997 279.4978  80.5648 15.27596436 31710
STARLINK-35670          
1 66480U 25262AA  26152.44170281  .00024146  00000+0  88383-3 0  9993
2 66480  42.9995 183.3073 0001925 278.4879  81.5754 15.27588677 31719
STARLINK-35698          
1 66481U 25262AB  26153.90832516  .00024118  00000+0  88225-3 0  9996
2 66481  43.0012 174.5367 0001451 255.9893 104.0798 15.27610901 31940
STARLINK-35648          
1 66482U 25262AC  26152.42242710  .00022588  00000+0  82770-3 0  9992
2 66482  42.9998 183.1637 0001848 272.1614  87.9026 15.27585254 31552
