OBJECT_NAME,OBJECT_ID,EPOCH,MEAN_MOTION,ECCENTRICITY,INCLINATION,RA_OF_ASC_NODE,ARG_OF_PERICENTER,MEAN_ANOMALY,EPHEMERIS_TYPE,CLASSIFICATION_TYPE,NORAD_CAT_ID,ELEMENT_SET_NO,REV_AT_EPOCH,BSTAR,MEAN_MOTION_DOT,MEAN_MOTION_DDOT
STARLINK-34720,2025-259AD,2026-06-01T10:06:45.886752,15.27604654,.00032115,43.0050,161.7566,279.5626,80.4863,0,U,66449,999,3218,.59980814E-3,.16293E-3,0
STARLINK-35334,2025-259AE,2026-06-01T10:01:13.271808,15.27598279,.0002674,43.0052,161.7325,294.0620,65.9952,0,U,66450,999,3229,.57223029E-3,.15527E-3,0
VIASAT-3 F2,2025-261A,2026-06-03T21:47:13.575264,1.00271106,.00002111,0.0481,148.1050,306.3193,45.7444,0,U,66454,999,266,0,-.221E-5,0
STARLINK-35643,2025-262A,2026-06-01T12:30:33.755328,15.27598949,.00015438,43.0012,183.0595,253.7497,106.3185,0,U,66456,999,3172,.47375604E-3,.12805E-3,0
STARLINK-35466,2025-262B,2026-06-03T11:22:18.539616,15.27624334,.0001069,42.9955,171.9121,285.3121,74.7612,0,U,66457,999,3202,.87585482E-3,.23951E-3,0
STARLINK-35684,2025-262C,2026-06-02T08:45:22.364352,15.27607122,.00021648,42.9917,178.2224,268.8250,91.2353,0,U,66458,999,3185,.13477208E-2,.37043E-3,0
STARLINK-35449,2025-262D,2026-06-01T09:00:03.223584,15.27595458,.00007842,42.9965,183.6792,166.1668,193.9205,0,U,66459,999,3170,.64198167E-3,.17454E-3,0
STARLINK-35424,2025-262E,2026-06-01T02:15:40.205376,15.27598004,.0001721,43.0002,185.0131,283.1750,76.8910,0,U,66460,999,3166,.82240604E-3,.2245E-3,0
STARLINK-35132,2025-262F,2026-06-01T03:46:07.314240,15.27597805,.00014182,43.0004,184.6228,257.1548,102.9145,0,U,66461,999,3167,.75097833E-3,.20472E-3,0
STARLINK-35499,2025-262G,2026-06-01T09:49:49.653408,15.27530496,.00012661,42.9989,183.0782,244.4182,115.6539,0,U,66462,999,3171,.67036607E-3,.18203E-3,0
STARLINK-35463,2025-262H,2026-06-03T11:09:21.335328,15.27613859,.00013013,42.9973,171.8396,303.0535,57.0192,0,U,66463,999,3202,.61086293E-3,.16603E-3,0
STARLINK-35435,2025-262J,2026-06-01T09:36:50.466240,15.27596302,.00017815,43.0027,183.0048,270.9192,89.1455,0,U,66464,999,3171,.64254059E-3,.1747E-3,0
STARLINK-35448,2025-262K,2026-06-01T10:45:18.268704,15.27591719,.00016146,42.9964,183.3646,258.0922,101.9749,0,U,66465,999,3171,.91348402E-3,.24969E-3,0
STARLINK-35388,2025-262L,2026-06-01T09:57:11.758752,15.27585541,.00019877,43.0009,183.1148,283.5763,76.4867,0,U,66466,999,3171,.26993865E-3,.7174E-4,0
STARLINK-35682,2025-262M,2026-06-01T11:09:21.439872,15.27593985,.00021596,43.0008,183.4953,261.9380,98.1227,0,U,66467,999,3171,.63915772E-3,.17375E-3,0
STARLINK-35331,2025-262N,2026-06-01T10:58:15.754656,15.27588657,.00012106,42.9998,183.4341,276.5916,83.4798,0,U,66468,999,3171,.10552774E-2,.28898E-3,0
STARLINK-35451,2025-262P,2026-06-02T21:49:50.426688,15.27609895,.0000973,42.9967,174.5484,163.0548,197.0337,0,U,66469,999,3194,.63641E-3,.17308E-3,0
STARLINK-35655,2025-262Q,2026-06-01T10:32:21.429888,15.27578837,.00011965,42.9960,183.2965,294.5293,65.5434,0,U,66470,999,3171,.79704072E-3,.21735E-3,0
STARLINK-35569,2025-262R,2026-06-01T02:19:22.118592,15.27597743,.00018875,43.0029,185.0304,290.9691,69.0959,0,U,66471,999,3166,.81102869E-3,.22135E-3,0
STARLINK-35567,2025-262S,2026-06-01T09:51:38.580480,15.27596101,.00019505,43.0030,183.0872,284.0020,76.0615,0,U,66472,999,3171,.79956864E-3,.21816E-3,0
STARLINK-35568,2025-262T,2026-06-01T11:03:48.587328,15.27594917,.00011439,42.9991,183.4595,250.1517,109.9211,0,U,66473,999,3171,.259302E-3,.6883E-4,0
STARLINK-35620,2025-262U,2026-06-01T03:47:58.251840,15.27595262,.00012686,43.0022,184.6254,234.6514,125.4219,0,U,66474,999,3167,.75816322E-3,.20669E-3,0
STARLINK-35538,2025-262V,2026-06-01T10:52:43.836096,15.27602894,.00017069,42.9996,183.3992,267.2268,92.8388,0,U,66475,999,3171,.73658619E-3,.20077E-3,0
STARLINK-35372,2025-262W,2026-06-01T10:28:41.247264,15.27579176,.00013748,42.9995,183.2727,269.4116,90.6578,0,U,66476,999,3160,.66081071E-3,.17966E-3,0
STARLINK-35354,2025-262X,2026-06-01T11:35:02.884992,15.27604932,.00032439,43.0036,182.7635,299.3127,60.7401,0,U,66477,999,3172,.63870946E-3,.1737E-3,0
STARLINK-35283,2025-262Y,2026-06-02T08:47:12.217632,15.27592578,.00008286,42.9950,178.2104,24.4916,335.5975,0,U,66478,999,3185,.66942413E-3,.18212E-3,0
STARLINK-35581,2025-262Z,2026-06-01T09:38:41.335584,15.27596436,.00019977,43.0025,183.0151,279.4978,80.5648,0,U,66479,999,3171,.73456249E-3,.20017E-3,0
STARLINK-35670,2025-262AA,2026-06-01T10:36:03.122784,15.27588677,.00019251,42.9995,183.3073,278.4879,81.5754,0,U,66480,999,3171,.8838336E-3,.24146E-3,0
STARLINK-35698,2025-262AB,2026-06-02T21:47:59.293824,15.27610901,.0001451,43.0012,174.5367,255.9893,104.0798,0,U,66481,999,3194,.88225E-3,.24118E-3,0
STARLINK-35648,2025-262AC,2026-06-01T10:08:17.701440,15.27585254,.00018488,42.9998,183.1637,272.1614,87.9026,0,U,66482,999,3155,.82769706E-3,.22588E-3,0
